[{"OBJECT_NAME":"STARLINK-30421","OBJECT_ID":"2023-161L","EPOCH":"2026-03-09T23:06:17.646336","MEAN_MOTION":15.30198109,"ECCENTRICITY":8.154e-5,"INCLINATION":53.1582,"RA_OF_ASC_NODE":151.2802,"ARG_OF_PERICENTER":63.1069,"MEAN_ANOMALY":297.0015,"EPHEMERIS_TYPE":0,"CLASSIFICATION_TYPE":"U","NORAD_CAT_ID":58107,"ELEMENT_SET_NO":999,"REV_AT_EPOCH":13464,"BSTAR":0.00012746632,"MEAN_MOTION_DOT":3.418e-5,"MEAN_MOTION_DDOT":0},{"OBJECT_NAME":"CZ-4C R\/B","OBJECT_ID":"2024-089B","EPOCH":"2026-03-09T16:45:24.409152","MEAN_MOTION":15.30115456,"ECCENTRICITY":0.00763424,"INCLINATION":97.7122,"RA_OF_ASC_NODE":107.3872,"ARG_OF_PERICENTER":235.0262,"MEAN_ANOMALY":124.3793,"EPHEMERIS_TYPE":0,"CLASSIFICATION_TYPE":"U","NORAD_CAT_ID":59729,"ELEMENT_SET_NO":999,"REV_AT_EPOCH":10143,"BSTAR":0.00030010198,"MEAN_MOTION_DOT":9.476e-5,"MEAN_MOTION_DDOT":0}]
